#aV2011  3  3  0  0   .00000000      96 DD+AD WGS84 FIT  NGA
## 1625 345600.00000000   900.00000000 55623  .0000000000000
+   32     1  2  3  4  5  6  7  8  9 10 11 12 13 14 15 16 17
+         18 19 20 21 22 23 24 25 26 27 28 29 30 31 32  0  0
+          0  0  0  0  0  0  0  0  0  0  0  0  0  0  0  0  0
+          0  0  0  0  0  0  0  0  0  0  0  0  0  0  0  0  0
+          0  0  0  0  0  0  0  0  0  0  0  0  0  0  0  0  0
++         0  0  0  0  0  0  0  0  0  0  0  0  0  0  0  0  0
++         0  0  0  0  0  0  0  0  0  0  0  0  0  0  0  0  0
++         0  0  0  0  0  0  0  0  0  0  0  0  0  0  0  0  0
++         0  0  0  0  0  0  0  0  0  0  0  0  0  0  0  0  0
++         0  0  0  0  0  0  0  0  0  0  0  0  0  0  0  0  0
%c cc cc ccc ccc cccc cccc cccc cccc ccccc ccccc ccccc ccccc
%c cc cc ccc ccc cccc cccc cccc cccc ccccc ccccc ccccc ccccc
%f  0.0000000  0.000000000  0.00000000000  0.000000000000000
%f  0.0000000  0.000000000  0.00000000000  0.000000000000000
%i    0    0    0    0      0      0      0      0         0
%i    0    0    0    0      0      0      0      0         0
/*      NGA, ST. LOUIS,MO.                                  
/*   EPHEMERIS COMPUTED FROM  3 DAYS OF DATA                
/* CCCCCCCCCCCCCCCCCCCCCCCCCCCCCCCCCCCCCCCCCCCCCCCCCCCCCCCCC
/* CCCCCCCCCCCCCCCCCCCCCCCCCCCCCCCCCCCCCCCCCCCCCCCCCCCCCCCCC
*  2011  3  3  1 30   .00000000                                                 
P  1   9693.377534 -14016.714837  20221.924884   -212.498178                    
V  1   9933.338422  23994.282321  11939.964382      -.028764                    
P  2  -7572.844133  14340.890566  20988.963099    323.176506                    
V  2 -26284.267633  -5088.624252  -6495.285545       .019847                    
P  3   8132.090559 -23893.942771  -8131.027096    683.163893                    
V  3   8499.733249  -6333.446983  28869.986986       .052022                    
P  4 -20064.586805   7984.946414  15480.035037     50.109033                    
V  4 -19259.107208  -5690.086010 -21389.778703       .103205                    
P  5   -253.208089  23687.174300  11883.767352   -123.053639                    
V  5  -7684.081075 -13341.976403  26485.822284      -.059011                    
P  6  13089.618611 -22566.708407  -4192.468985     96.718644                    
V  6   6331.714183  -2213.637472  30714.833654     -1.373650                    
P  7 -26021.807997  -5690.637006   1366.358415      4.743037                    
V  7   2087.578384  -1878.464887  31851.190416       .008624                    
P  8 -25085.173268   -148.673709  -9507.450624      7.476759                    
V  8 -11228.406679  -4082.279337  29097.517712       .000632                    
P  9  13919.926895  14304.524984 -18073.862855     65.202204                    
V  9 -21722.340186  -2214.893863 -19053.639341       .024274                    
P 10 -11436.140382  11932.085204  20501.109894    -67.750415                    
V 10  -9669.188389 -24852.006257   9344.785820      -.010905                    
P 11 -14733.069816 -13505.035477 -17952.192903   -131.385344                    
V 11  22125.896812  -3983.037003 -15078.232313      -.029710                    
P 12  11066.537342  23957.462091   3771.691810    -22.362595                    
V 12   -548.718860   5189.252439 -31454.729808       .032248                    
P 13 -16491.509613  -2414.873808  20550.575615    280.503541                    
V 13  17932.161351 -19283.971195  11995.670540      -.013777                    
P 14  20857.995282 -13508.200645  -9029.738937    134.984417                    
V 14  -6499.854041   9940.927416 -29507.227378       .025230                    
P 15   3222.586237  17911.892429 -19277.599414   -146.718186                    
V 15 -16607.811765  18192.880292  14279.181140       .033311                    
P 16   2905.774895 -22099.445849  14248.286684   -154.747768                    
V 16   7556.203804  16595.893273  24540.281421      -.028819                    
P 17 -20764.269384  12826.659482 -10067.816492    183.588958                    
V 17   6641.778257 -11546.540794 -28271.576735       .003681                    
P 18  17137.871007   6259.899444 -19120.774574    124.396915                    
V 18   6743.705365  24018.709271  13322.494930       .020555                    
P 19   1882.404503 -19567.527420 -17695.953054   -116.377371                    
V 19  17221.664288 -14771.271065  18494.980472      -.037349                    
P 20 -14422.932256 -21058.066780   7323.383698     48.668604                    
V 20   -412.632588 -10105.126329 -29206.243807       .000280                    
P 21  26309.694324   5580.265845    940.051912   -127.699084                    
V 21  -1287.832129   2988.330533  30681.846573      -.026357                    
P 22  14292.417764  -6833.466092 -21149.029351    152.403652                    
V 22   9122.866764  25800.223086  -2252.178562      -.004332                    
P 23  -8370.599678 -13093.995373  21494.847153    322.607402                    
V 23  18242.082559 -20365.365418  -5631.186220      -.024297                    
P 24 -16425.927891 -14750.148588 -14902.686804    370.040197                    
V 24  18948.937616   2150.528181 -22656.079515       .031838                    
P 25  16736.131143  13600.458791  15499.971716    -69.966165                    
V 25   5203.623203  19094.862487 -22342.140467      -.010768                    
P 26  -9370.791174  21525.603258 -12575.161753   -135.021004                    
V 26 -11816.527194   9653.196182  26975.383194      -.098956                    
P 27   8591.772555  14531.853475 -19919.422876    241.851720                    
V 27 -26556.015509  -2482.885408 -12557.932097       .036137                    
P 28 -14710.990644   2090.579508 -21516.945834     22.997062                    
V 28  -8570.677964 -27188.710933   2887.046872       .021456                    
P 29  15005.507805   5523.487817  21282.290878    189.489399                    
V 29 -17502.628690  20356.264157   7122.777556       .028972                    
P 30   6802.277820 -17396.384522  18462.790734    326.106440                    
V 30  10791.794273  21842.020902  16279.764895       .029379                    
P 31  17886.895499  -8890.985111  17819.605716     48.227554                    
V 31  21516.818920   5113.525304 -19070.933353       .047365                    
P 32  -7592.163564 -25677.021255    912.310202   -207.215254                    
V 32   2337.564123  -1458.553447 -31344.039161      -.076741                    
EOF
